[{"OBJECT_NAME":"BEIDOU-2 IGSO-1 (C06)","OBJECT_ID":"2010-036A","EPOCH":"2026-03-27T15:19:55.702560","MEAN_MOTION":1.00295665,"ECCENTRICITY":0.00574619,"INCLINATION":54.2909,"RA_OF_ASC_NODE":163.6978,"ARG_OF_PERICENTER":222.7538,"MEAN_ANOMALY":133.1758,"EPHEMERIS_TYPE":0,"CLASSIFICATION_TYPE":"U","NORAD_CAT_ID":36828,"ELEMENT_SET_NO":999,"REV_AT_EPOCH":5727,"BSTAR":0,"MEAN_MOTION_DOT":-1.5e-6,"MEAN_MOTION_DDOT":0},{"OBJECT_NAME":"BEIDOU-2 G4 (C04)","OBJECT_ID":"2010-057A","EPOCH":"2026-04-04T05:31:38.645760","MEAN_MOTION":1.0027151,"ECCENTRICITY":0.00073218,"INCLINATION":3.4642,"RA_OF_ASC_NODE":69.3636,"ARG_OF_PERICENTER":215.4986,"MEAN_ANOMALY":150.6018,"EPHEMERIS_TYPE":0,"CLASSIFICATION_TYPE":"U","NORAD_CAT_ID":37210,"ELEMENT_SET_NO":999,"REV_AT_EPOCH":5655,"BSTAR":0,"MEAN_MOTION_DOT":-1.11e-6,"MEAN_MOTION_DDOT":0},{"OBJECT_NAME":"BEIDOU-2 IGSO-2 (C07)","OBJECT_ID":"2010-068A","EPOCH":"2026-03-27T10:45:38.648736","MEAN_MOTION":1.00251076,"ECCENTRICITY":0.00480708,"INCLINATION":47.6922,"RA_OF_ASC_NODE":272.8379,"ARG_OF_PERICENTER":212.2935,"MEAN_ANOMALY":326.6285,"EPHEMERIS_TYPE":0,"CLASSIFICATION_TYPE":"U","NORAD_CAT_ID":37256,"ELEMENT_SET_NO":999,"REV_AT_EPOCH":5597,"BSTAR":0,"MEAN_MOTION_DOT":-1.75e-6,"MEAN_MOTION_DDOT":0},{"OBJECT_NAME":"BEIDOU-2 IGSO-3 (C08)","OBJECT_ID":"2011-013A","EPOCH":"2026-03-26T19:21:38.699424","MEAN_MOTION":1.00287208,"ECCENTRICITY":0.00341987,"INCLINATION":62.3016,"RA_OF_ASC_NODE":40.9294,"ARG_OF_PERICENTER":190.2272,"MEAN_ANOMALY":350.7783,"EPHEMERIS_TYPE":0,"CLASSIFICATION_TYPE":"U","NORAD_CAT_ID":37384,"ELEMENT_SET_NO":999,"REV_AT_EPOCH":5483,"BSTAR":0,"MEAN_MOTION_DOT":-1.76e-6,"MEAN_MOTION_DDOT":0},{"OBJECT_NAME":"BEIDOU-2 IGSO-4 (C09)","OBJECT_ID":"2011-038A","EPOCH":"2026-03-28T15:54:07.127136","MEAN_MOTION":1.00260433,"ECCENTRICITY":0.0156581,"INCLINATION":54.5871,"RA_OF_ASC_NODE":166.404,"ARG_OF_PERICENTER":231.4212,"MEAN_ANOMALY":120.2889,"EPHEMERIS_TYPE":0,"CLASSIFICATION_TYPE":"U","NORAD_CAT_ID":37763,"ELEMENT_SET_NO":999,"REV_AT_EPOCH":5383,"BSTAR":0,"MEAN_MOTION_DOT":-1.09e-6,"MEAN_MOTION_DDOT":0},{"OBJECT_NAME":"BEIDOU-2 IGSO-5 (C10)","OBJECT_ID":"2011-073A","EPOCH":"2026-04-03T23:17:21.772896","MEAN_MOTION":1.00265759,"ECCENTRICITY":0.01095393,"INCLINATION":47.8149,"RA_OF_ASC_NODE":272.4589,"ARG_OF_PERICENTER":220.8427,"MEAN_ANOMALY":142.8662,"EPHEMERIS_TYPE":0,"CLASSIFICATION_TYPE":"U","NORAD_CAT_ID":37948,"ELEMENT_SET_NO":999,"REV_AT_EPOCH":5239,"BSTAR":0,"MEAN_MOTION_DOT":-1.74e-6,"MEAN_MOTION_DDOT":0},{"OBJECT_NAME":"BEIDOU-2 G5 (C05)","OBJECT_ID":"2012-008A","EPOCH":"2026-04-04T04:30:34.547904","MEAN_MOTION":1.00275805,"ECCENTRICITY":0.00132513,"INCLINATION":3.3901,"RA_OF_ASC_NODE":70.1219,"ARG_OF_PERICENTER":260.9431,"MEAN_ANOMALY":347.8598,"EPHEMERIS_TYPE":0,"CLASSIFICATION_TYPE":"U","NORAD_CAT_ID":38091,"ELEMENT_SET_NO":999,"REV_AT_EPOCH":5162,"BSTAR":0,"MEAN_MOTION_DOT":5.7e-7,"MEAN_MOTION_DDOT":0},{"OBJECT_NAME":"BEIDOU-2 M3 (C11)","OBJECT_ID":"2012-018A","EPOCH":"2026-04-04T02:07:31.417248","MEAN_MOTION":1.86229902,"ECCENTRICITY":0.00201848,"INCLINATION":55.8207,"RA_OF_ASC_NODE":307.3724,"ARG_OF_PERICENTER":279.408,"MEAN_ANOMALY":80.3921,"EPHEMERIS_TYPE":0,"CLASSIFICATION_TYPE":"U","NORAD_CAT_ID":38250,"ELEMENT_SET_NO":999,"REV_AT_EPOCH":9456,"BSTAR":0,"MEAN_MOTION_DOT":-6.4e-7,"MEAN_MOTION_DDOT":0},{"OBJECT_NAME":"BEIDOU-2 M4 (C12)","OBJECT_ID":"2012-018B","EPOCH":"2026-04-04T00:29:52.807776","MEAN_MOTION":1.86229532,"ECCENTRICITY":0.00114801,"INCLINATION":55.7212,"RA_OF_ASC_NODE":306.5945,"ARG_OF_PERICENTER":286.2876,"MEAN_ANOMALY":73.6134,"EPHEMERIS_TYPE":0,"CLASSIFICATION_TYPE":"U","NORAD_CAT_ID":38251,"ELEMENT_SET_NO":999,"REV_AT_EPOCH":9456,"BSTAR":0,"MEAN_MOTION_DOT":-6.4e-7,"MEAN_MOTION_DDOT":0},{"OBJECT_NAME":"BEIDOU-2 M6 (C14)","OBJECT_ID":"2012-050B","EPOCH":"2026-04-03T04:39:01.773792","MEAN_MOTION":1.86231006,"ECCENTRICITY":0.00144468,"INCLINATION":56.481,"RA_OF_ASC_NODE":65.3724,"ARG_OF_PERICENTER":345.0815,"MEAN_ANOMALY":14.8482,"EPHEMERIS_TYPE":0,"CLASSIFICATION_TYPE":"U","NORAD_CAT_ID":38775,"ELEMENT_SET_NO":999,"REV_AT_EPOCH":9191,"BSTAR":0,"MEAN_MOTION_DOT":-4.4e-7,"MEAN_MOTION_DDOT":0},{"OBJECT_NAME":"BEIDOU-2 G6 (C02)","OBJECT_ID":"2012-059A","EPOCH":"2026-04-04T01:12:23.556960","MEAN_MOTION":1.00271777,"ECCENTRICITY":0.00108948,"INCLINATION":4.2347,"RA_OF_ASC_NODE":74.3032,"ARG_OF_PERICENTER":311.1806,"MEAN_ANOMALY":269.038,"EPHEMERIS_TYPE":0,"CLASSIFICATION_TYPE":"U","NORAD_CAT_ID":38953,"ELEMENT_SET_NO":999,"REV_AT_EPOCH":4916,"BSTAR":0,"MEAN_MOTION_DOT":-1.75e-6,"MEAN_MOTION_DDOT":0},{"OBJECT_NAME":"BEIDOU-3S IGSO-1S (C31)","OBJECT_ID":"2015-019A","EPOCH":"2026-03-23T06:58:51.098016","MEAN_MOTION":1.00268843,"ECCENTRICITY":0.0036261,"INCLINATION":49.3559,"RA_OF_ASC_NODE":296.4949,"ARG_OF_PERICENTER":190.1236,"MEAN_ANOMALY":255.118,"EPHEMERIS_TYPE":0,"CLASSIFICATION_TYPE":"U","NORAD_CAT_ID":40549,"ELEMENT_SET_NO":999,"REV_AT_EPOCH":4021,"BSTAR":0,"MEAN_MOTION_DOT":-1.63e-6,"MEAN_MOTION_DDOT":0},{"OBJECT_NAME":"BEIDOU-3S M2S (C58)","OBJECT_ID":"2015-037A","EPOCH":"2026-04-03T16:29:48.088896","MEAN_MOTION":1.86232009,"ECCENTRICITY":0.00078661,"INCLINATION":54.9362,"RA_OF_ASC_NODE":304.6107,"ARG_OF_PERICENTER":276.2364,"MEAN_ANOMALY":83.6984,"EPHEMERIS_TYPE":0,"CLASSIFICATION_TYPE":"U","NORAD_CAT_ID":40748,"ELEMENT_SET_NO":999,"REV_AT_EPOCH":7273,"BSTAR":0,"MEAN_MOTION_DOT":-6.4e-7,"MEAN_MOTION_DDOT":0},{"OBJECT_NAME":"BEIDOU-3S M1S (C57)","OBJECT_ID":"2015-037B","EPOCH":"2026-04-03T21:41:35.825568","MEAN_MOTION":1.86254958,"ECCENTRICITY":0.0004693,"INCLINATION":54.9325,"RA_OF_ASC_NODE":304.5916,"ARG_OF_PERICENTER":43.1589,"MEAN_ANOMALY":316.9018,"EPHEMERIS_TYPE":0,"CLASSIFICATION_TYPE":"U","NORAD_CAT_ID":40749,"ELEMENT_SET_NO":999,"REV_AT_EPOCH":7274,"BSTAR":0,"MEAN_MOTION_DOT":-6.3e-7,"MEAN_MOTION_DDOT":0},{"OBJECT_NAME":"BEIDOU-3S IGSO-2S (C56)","OBJECT_ID":"2015-053A","EPOCH":"2026-04-03T21:50:58.514208","MEAN_MOTION":1.00277577,"ECCENTRICITY":0.00623637,"INCLINATION":49.3401,"RA_OF_ASC_NODE":259.6611,"ARG_OF_PERICENTER":189.8342,"MEAN_ANOMALY":167.2762,"EPHEMERIS_TYPE":0,"CLASSIFICATION_TYPE":"U","NORAD_CAT_ID":40938,"ELEMENT_SET_NO":999,"REV_AT_EPOCH":3860,"BSTAR":0,"MEAN_MOTION_DOT":-1.48e-6,"MEAN_MOTION_DDOT":0},{"OBJECT_NAME":"BEIDOU-2 IGSO-6 (C13)","OBJECT_ID":"2016-021A","EPOCH":"2026-04-02T19:31:21.614304","MEAN_MOTION":1.00273243,"ECCENTRICITY":0.00588423,"INCLINATION":60.1276,"RA_OF_ASC_NODE":38.7875,"ARG_OF_PERICENTER":233.3821,"MEAN_ANOMALY":307.4549,"EPHEMERIS_TYPE":0,"CLASSIFICATION_TYPE":"U","NORAD_CAT_ID":41434,"ELEMENT_SET_NO":999,"REV_AT_EPOCH":3672,"BSTAR":0,"MEAN_MOTION_DOT":-1.7e-6,"MEAN_MOTION_DDOT":0},{"OBJECT_NAME":"BEIDOU-2 G7 (C03)","OBJECT_ID":"2016-037A","EPOCH":"2026-04-03T23:37:10.190208","MEAN_MOTION":1.00278098,"ECCENTRICITY":0.00073095,"INCLINATION":1.5375,"RA_OF_ASC_NODE":68.5645,"ARG_OF_PERICENTER":348.3899,"MEAN_ANOMALY":240.0809,"EPHEMERIS_TYPE":0,"CLASSIFICATION_TYPE":"U","NORAD_CAT_ID":41586,"ELEMENT_SET_NO":999,"REV_AT_EPOCH":614,"BSTAR":0,"MEAN_MOTION_DOT":-3.54e-6,"MEAN_MOTION_DDOT":0}]
